[Satellite]
VERSION=1.1
NAME=IRIDIUM 71 [-]
NICKNAME=IRIDIUM 71 [-]
TLE1=1 25320U 98026B   20158.02493738  .00000090  00000-0  22508-4 0  9999
TLE2=2 25320  86.3966 144.7198 0003513  54.4571 305.6955 14.39248343159496
STATUS=2
